{
  "type": "FeatureCollection",
  "features": [
    {
      "type": "Feature",
      "properties": {
        "norad_id": 41773,
        "name": "SKYSAT-C2",
        "group": "resource",
        "lat": 38.291542175155726,
        "lon": -152.20008295792834,
        "alt_km": 452.2698548843764,
        "timestamp": "2025-12-24T03:53:29.299840+00:00",
        "meta_object_name": "SKYSAT-C2",
        "meta_object_id": "2016-058D",
        "meta_epoch": "2025-12-23T13:13:16.589280",
        "meta_mean_motion": 15.37504356,
        "meta_eccentricity": 0.0002947,
        "meta_inclination": 97.0347,
        "meta_ra_of_asc_node": 21.6195,
        "meta_arg_of_pericenter": 2.412,
        "meta_mean_anomaly": 357.7139,
        "meta_ephemeris_type": 0,
        "meta_classification_type": "U",
        "meta_norad_cat_id": 41773,
        "meta_element_set_no": 999,
        "meta_rev_at_epoch": 51802,
        "meta_bstar": 0.00033388,
        "meta_mean_motion_dot": 0.00012212,
        "meta_mean_motion_ddot": 0,
        "tle_line1": "1 41773U 16058D   25357.55088645  .00012212  00000+0  33388-3 0  9990",
        "tle_line2": "2 41773  97.0347  21.6195 0002947   2.4120 357.7139 15.37504356518029"
      },
      "geometry": {
        "type": "Point",
        "coordinates": [
          -152.20008295792834,
          38.291542175155726
        ]
      }
    },
    {
      "type": "Feature",
      "properties": {
        "norad_id": 41774,
        "name": "SKYSAT-C3",
        "group": "resource",
        "lat": -81.65397449540487,
        "lon": 155.39739732400366,
        "alt_km": 440.74578868314256,
        "timestamp": "2025-12-24T03:53:29.299851+00:00",
        "meta_object_name": "SKYSAT-C3",
        "meta_object_id": "2016-058E",
        "meta_epoch": "2025-12-23T12:45:16.252704",
        "meta_mean_motion": 15.44767808,
        "meta_eccentricity": 0.0002125,
        "meta_inclination": 96.928,
        "meta_ra_of_asc_node": 30.7763,
        "meta_arg_of_pericenter": 106.2796,
        "meta_mean_anomaly": 253.8687,
        "meta_ephemeris_type": 0,
        "meta_classification_type": "U",
        "meta_norad_cat_id": 41774,
        "meta_element_set_no": 999,
        "meta_rev_at_epoch": 51892,
        "meta_bstar": 0.00040921,
        "meta_mean_motion_dot": 0.00019081,
        "meta_mean_motion_ddot": 0,
        "tle_line1": "1 41774U 16058E   25357.53143811  .00019081  00000+0  40921-3 0  9998",
        "tle_line2": "2 41774  96.9280  30.7763 0002125 106.2796 253.8687 15.44767808518920"
      },
      "geometry": {
        "type": "Point",
        "coordinates": [
          155.39739732400366,
          -81.65397449540487
        ]
      }
    },
    {
      "type": "Feature",
      "properties": {
        "norad_id": 41785,
        "name": "ALSAT 1B",
        "group": "resource",
        "lat": 26.741517557323295,
        "lon": 5.508066850129366,
        "alt_km": 647.985060998888,
        "timestamp": "2025-12-24T03:53:29.299861+00:00",
        "meta_object_name": "ALSAT 1B",
        "meta_object_id": "2016-059C",
        "meta_epoch": "2025-12-23T21:14:38.371776",
        "meta_mean_motion": 14.72087414,
        "meta_eccentricity": 0.0010784,
        "meta_inclination": 97.7804,
        "meta_ra_of_asc_node": 9.1933,
        "meta_arg_of_pericenter": 72.2164,
        "meta_mean_anomaly": 288.022,
        "meta_ephemeris_type": 0,
        "meta_classification_type": "U",
        "meta_norad_cat_id": 41785,
        "meta_element_set_no": 999,
        "meta_rev_at_epoch": 49478,
        "meta_bstar": 0.00012311,
        "meta_mean_motion_dot": 7.28e-06,
        "meta_mean_motion_ddot": 0,
        "tle_line1": "1 41785U 16059C   25357.88516634  .00000728  00000+0  12311-3 0  9996",
        "tle_line2": "2 41785  97.7804   9.1933 0010784  72.2164 288.0220 14.72087414494781"
      },
      "geometry": {
        "type": "Point",
        "coordinates": [
          5.508066850129366,
          26.741517557323295
        ]
      }
    },
    {
      "type": "Feature",
      "properties": {
        "norad_id": 41787,
        "name": "PATHFINDER 1",
        "group": "resource",
        "lat": -82.16441847233762,
        "lon": 86.63584856025622,
        "alt_km": 691.8987168389531,
        "timestamp": "2025-12-24T03:53:29.299871+00:00",
        "meta_object_name": "PATHFINDER 1",
        "meta_object_id": "2016-059E",
        "meta_epoch": "2025-12-23T05:23:11.414688",
        "meta_mean_motion": 14.6733864,
        "meta_eccentricity": 0.00297065,
        "meta_inclination": 97.8137,
        "meta_ra_of_asc_node": 359.5115,
        "meta_arg_of_pericenter": 49.2406,
        "meta_mean_anomaly": 311.1371,
        "meta_ephemeris_type": 0,
        "meta_classification_type": "U",
        "meta_norad_cat_id": 41787,
        "meta_element_set_no": 999,
        "meta_rev_at_epoch": 49390,
        "meta_bstar": 0.00013866817,
        "meta_mean_motion_dot": 7.41e-06,
        "meta_mean_motion_ddot": 0,
        "tle_line1": "1 41787U 16059E   25357.22443767  .00000741  00000+0  13867-3 0  9994",
        "tle_line2": "2 41787  97.8137 359.5115 0029706  49.2406 311.1371 14.67338640493906"
      },
      "geometry": {
        "type": "Point",
        "coordinates": [
          86.63584856025622,
          -82.16441847233762
        ]
      }
    },
    {
      "type": "Feature",
      "properties": {
        "norad_id": 41790,
        "name": "SCATSAT 1",
        "group": "resource",
        "lat": 20.047268456993383,
        "lon": 51.97866163549501,
        "alt_km": 619.9343943849199,
        "timestamp": "2025-12-24T03:53:29.299882+00:00",
        "meta_object_name": "SCATSAT 1",
        "meta_object_id": "2016-059H",
        "meta_epoch": "2025-12-23T03:26:39.466176",
        "meta_mean_motion": 14.78968555,
        "meta_eccentricity": 0.00564819,
        "meta_inclination": 98.1447,
        "meta_ra_of_asc_node": 53.9431,
        "meta_arg_of_pericenter": 95.2221,
        "meta_mean_anomaly": 265.5439,
        "meta_ephemeris_type": 0,
        "meta_classification_type": "U",
        "meta_norad_cat_id": 41790,
        "meta_element_set_no": 999,
        "meta_rev_at_epoch": 7556,
        "meta_bstar": 0.00018480331,
        "meta_mean_motion_dot": 1.344e-05,
        "meta_mean_motion_ddot": 0,
        "tle_line1": "1 41790U 16059H   25357.14351234  .00001344  00000+0  18480-3 0  9992",
        "tle_line2": "2 41790  98.1447  53.9431 0056481  95.2221 265.5439 14.78968555 75561"
      },
      "geometry": {
        "type": "Point",
        "coordinates": [
          51.97866163549501,
          20.047268456993383
        ]
      }
    },
    {
      "type": "Feature",
      "properties": {
        "norad_id": 41875,
        "name": "GOKTURK 1A",
        "group": "resource",
        "lat": 18.06493693845373,
        "lon": 73.05186124860188,
        "alt_km": 684.3822653114275,
        "timestamp": "2025-12-24T03:53:29.299892+00:00",
        "meta_object_name": "GOKTURK 1A",
        "meta_object_id": "2016-073A",
        "meta_epoch": "2025-12-23T20:35:18.106944",
        "meta_mean_motion": 14.62791436,
        "meta_eccentricity": 0.0001294,
        "meta_inclination": 98.143,
        "meta_ra_of_asc_node": 250.0749,
        "meta_arg_of_pericenter": 82.8682,
        "meta_mean_anomaly": 277.2667,
        "meta_ephemeris_type": 0,
        "meta_classification_type": "U",
        "meta_norad_cat_id": 41875,
        "meta_element_set_no": 999,
        "meta_rev_at_epoch": 48319,
        "meta_bstar": 0.00010398,
        "meta_mean_motion_dot": 4.84e-06,
        "meta_mean_motion_ddot": 0,
        "tle_line1": "1 41875U 16073A   25357.85784846  .00000484  00000+0  10398-3 0  9993",
        "tle_line2": "2 41875  98.1430 250.0749 0001294  82.8682 277.2667 14.62791436483194"
      },
      "geometry": {
        "type": "Point",
        "coordinates": [
          73.05186124860188,
          18.06493693845373
        ]
      }
    },
    {
      "type": "Feature",
      "properties": {
        "norad_id": 41877,
        "name": "RESOURCESAT-2A",
        "group": "resource",
        "lat": -39.6181874283665,
        "lon": 75.29666780344604,
        "alt_km": 826.84396260004,
        "timestamp": "2025-12-24T03:53:29.299903+00:00",
        "meta_object_name": "RESOURCESAT-2A",
        "meta_object_id": "2016-074A",
        "meta_epoch": "2025-12-23T19:38:03.262848",
        "meta_mean_motion": 14.21605029,
        "meta_eccentricity": 0.0001561,
        "meta_inclination": 98.7743,
        "meta_ra_of_asc_node": 67.6092,
        "meta_arg_of_pericenter": 206.1479,
        "meta_mean_anomaly": 153.9619,
        "meta_ephemeris_type": 0,
        "meta_classification_type": "U",
        "meta_norad_cat_id": 41877,
        "meta_element_set_no": 999,
        "meta_rev_at_epoch": 46938,
        "meta_bstar": 0.00020242,
        "meta_mean_motion_dot": 3.99e-06,
        "meta_mean_motion_ddot": 0,
        "tle_line1": "1 41877U 16074A   25357.81809332  .00000399  00000+0  20242-3 0  9994",
        "tle_line2": "2 41877  98.7743  67.6092 0001561 206.1479 153.9619 14.21605029469383"
      },
      "geometry": {
        "type": "Point",
        "coordinates": [
          75.29666780344604,
          -39.6181874283665
        ]
      }
    }
  ]
}